start=new Date('2021-11-26T00:00:00.000Z').valueOf();
sats=[{"NORAD_CAT_ID":"47734","TIME_SYSTEM":"UTC","MEAN_ELEMENT_THEORY":"SGP4","LAUNCH_DATE":"2021-03-04","EPOCH":"2021-11-25T14:49:37.667712","CLASSIFICATION_TYPE":"U","INCLINATION":"53.0581","PERIOD":"95.592","GP_ID":"190492691","OBJECT_ID":"2021-017N","OBJECT_TYPE":"PAYLOAD","MEAN_ANOMALY":"291.9870","MEAN_MOTION":"15.06398164","CENTER_NAME":"EARTH","APOAPSIS":"548.225","SITE":"AFETR","SEMIMAJOR_AXIS":"6925.354","EPHEMERIS_TYPE":"0","COUNTRY_CODE":"US","PERIAPSIS":"546.214","TLE_LINE1":"1 47734U 21017N   21329.61779708  .00000984  00000-0  84972-4 0  9993","MEAN_MOTION_DDOT":"0.0000000000000","RA_OF_ASC_NODE":"37.5012","RCS_SIZE":"LARGE","ELEMENT_SET_NO":"999","TLE_LINE2":"2 47734  53.0581  37.5012 0001452  68.1273 291.9870 15.06398164 41853","DECAY_DATE":null,"REV_AT_EPOCH":"4185","MEAN_MOTION_DOT":"0.00000984","FILE":"3224126","BSTAR":"0.00008497200000","ARG_OF_PERICENTER":"68.1273","ECCENTRICITY":"0.00014520","REF_FRAME":"TEME","OBJECT_NAME":"STARLINK-2144"},{"PERIAPSIS":"546.213","EPHEMERIS_TYPE":"0","COUNTRY_CODE":"US","SEMIMAJOR_AXIS":"6925.354","SITE":"AFETR","APOAPSIS":"548.226","MEAN_MOTION":"15.06398062","MEAN_ANOMALY":"292.1322","CENTER_NAME":"EARTH","OBJECT_TYPE":"PAYLOAD","OBJECT_ID":"2021-017P","CLASSIFICATION_TYPE":"U","GP_ID":"190493941","PERIOD":"95.592","INCLINATION":"53.0540","TIME_SYSTEM":"UTC","NORAD_CAT_ID":"47735","EPOCH":"2021-11-25T16:25:48.656352","LAUNCH_DATE":"2021-03-04","MEAN_ELEMENT_THEORY":"SGP4","REF_FRAME":"TEME","OBJECT_NAME":"STARLINK-2146","ECCENTRICITY":"0.00014530","ARG_OF_PERICENTER":"67.9821","FILE":"3224126","BSTAR":"0.00001378900000","REV_AT_EPOCH":"4289","MEAN_MOTION_DOT":"-0.00000076","DECAY_DATE":null,"MEAN_MOTION_DDOT":"0.0000000000000","TLE_LINE2":"2 47735  53.0540 322.1812 0001453  67.9821 292.1322 15.06398062 42894","RA_OF_ASC_NODE":"322.1812","RCS_SIZE":"LARGE","ELEMENT_SET_NO":"999","TLE_LINE1":"1 47735U 21017P   21329.68459093 -.00000076  00000-0  13789-4 0  9994"},{"DECAY_DATE":null,"REV_AT_EPOCH":"4202","MEAN_MOTION_DOT":"-0.00001204","TLE_LINE1":"1 47736U 21017Q   21329.58554710 -.00001204  00000-0 -61958-4 0  9992","ELEMENT_SET_NO":"999","RCS_SIZE":"LARGE","RA_OF_ASC_NODE":"27.6462","TLE_LINE2":"2 47736  53.0569  27.6462 0001650  88.5325 271.5853 15.06403203 42020","MEAN_MOTION_DDOT":"0.0000000000000","ECCENTRICITY":"0.00016500","OBJECT_NAME":"STARLINK-2147","REF_FRAME":"TEME","BSTAR":"-0.00006195800000","FILE":"3224126","ARG_OF_PERICENTER":"88.5325","OBJECT_ID":"2021-017Q","OBJECT_TYPE":"PAYLOAD","CENTER_NAME":"EARTH","MEAN_ANOMALY":"271.5853","MEAN_MOTION":"15.06403203","LAUNCH_DATE":"2021-03-04","MEAN_ELEMENT_THEORY":"SGP4","EPOCH":"2021-11-25T14:03:11.269440","NORAD_CAT_ID":"47736","TIME_SYSTEM":"UTC","INCLINATION":"53.0569","GP_ID":"190494192","PERIOD":"95.592","CLASSIFICATION_TYPE":"U","COUNTRY_CODE":"US","EPHEMERIS_TYPE":"0","PERIAPSIS":"546.061","APOAPSIS":"548.346","SEMIMAJOR_AXIS":"6925.339","SITE":"AFETR"},{"ECCENTRICITY":"0.00018700","REF_FRAME":"TEME","OBJECT_NAME":"STARLINK-2148","FILE":"3223911","BSTAR":"-0.00003363500000","ARG_OF_PERICENTER":"53.0609","DECAY_DATE":null,"MEAN_MOTION_DOT":"-0.00000783","REV_AT_EPOCH":"4290","TLE_LINE1":"1 47737U 21017R   21329.40171729 -.00000783  00000-0 -33635-4 0  9991","MEAN_MOTION_DDOT":"0.0000000000000","TLE_LINE2":"2 47737  53.0556 323.4585 0001870  53.0609 307.0551 15.06396931 42902","RA_OF_ASC_NODE":"323.4585","RCS_SIZE":"LARGE","ELEMENT_SET_NO":"999","EPHEMERIS_TYPE":"0","COUNTRY_CODE":"US","PERIAPSIS":"545.928","SEMIMAJOR_AXIS":"6925.358","SITE":"AFETR","APOAPSIS":"548.518","OBJECT_TYPE":"PAYLOAD","OBJECT_ID":"2021-017R","MEAN_MOTION":"15.06396931","MEAN_ANOMALY":"307.0551","CENTER_NAME":"EARTH","TIME_SYSTEM":"UTC","NORAD_CAT_ID":"47737","EPOCH":"2021-11-25T09:38:28.373856","MEAN_ELEMENT_THEORY":"SGP4","LAUNCH_DATE":"2021-03-04","CLASSIFICATION_TYPE":"U","GP_ID":"190464952","PERIOD":"95.592","INCLINATION":"53.0556"},{"DECAY_DATE":null,"MEAN_MOTION_DOT":"-0.00000220","REV_AT_EPOCH":"4201","TLE_LINE1":"1 47738U 21017S   21329.53394985 -.00000220  00000-0  42470-5 0  9990","RA_OF_ASC_NODE":"27.8844","RCS_SIZE":"LARGE","ELEMENT_SET_NO":"999","TLE_LINE2":"2 47738  53.0561  27.8844 0005870  17.5563 342.5628 15.06394024 42012","MEAN_MOTION_DDOT":"0.0000000000000","ECCENTRICITY":"0.00058700","OBJECT_NAME":"STARLINK-2149","REF_FRAME":"TEME","BSTAR":"0.00000424700000","FILE":"3223911","ARG_OF_PERICENTER":"17.5563","OBJECT_TYPE":"PAYLOAD","OBJECT_ID":"2021-017S","CENTER_NAME":"EARTH","MEAN_ANOMALY":"342.5628","MEAN_MOTION":"15.06394024","LAUNCH_DATE":"2021-03-04","MEAN_ELEMENT_THEORY":"SGP4","EPOCH":"2021-11-25T12:48:53.267040","NORAD_CAT_ID":"47738","TIME_SYSTEM":"UTC","INCLINATION":"53.0561","PERIOD":"95.593","GP_ID":"190465202","CLASSIFICATION_TYPE":"U","COUNTRY_CODE":"US","EPHEMERIS_TYPE":"0","PERIAPSIS":"543.167","APOAPSIS":"551.297","SITE":"AFETR","SEMIMAJOR_AXIS":"6925.367"},{"TLE_LINE1":"1 47739U 21017T   21329.64775712 -.00000395  00000-0 -76124-5 0  9991","MEAN_MOTION_DDOT":"0.0000000000000","RA_OF_ASC_NODE":"52.3682","RCS_SIZE":"LARGE","ELEMENT_SET_NO":"999","TLE_LINE2":"2 47739  53.0555  52.3682 0001028  77.0756 283.0347 15.06396619 41686","DECAY_DATE":null,"REV_AT_EPOCH":"4168","MEAN_MOTION_DOT":"-0.00000395","FILE":"3224126","BSTAR":"-0.00000761240000","ARG_OF_PERICENTER":"77.0756","ECCENTRICITY":"0.00010280","REF_FRAME":"TEME","OBJECT_NAME":"STARLINK-2150","NORAD_CAT_ID":"47739","TIME_SYSTEM":"UTC","LAUNCH_DATE":"2021-03-04","MEAN_ELEMENT_THEORY":"SGP4","EPOCH":"2021-11-25T15:32:46.215168","CLASSIFICATION_TYPE":"U","INCLINATION":"53.0555","PERIOD":"95.592","GP_ID":"190493443","OBJECT_ID":"2021-017T","OBJECT_TYPE":"PAYLOAD","MEAN_ANOMALY":"283.0347","MEAN_MOTION":"15.06396619","CENTER_NAME":"EARTH","APOAPSIS":"547.936","SEMIMAJOR_AXIS":"6925.359","SITE":"AFETR","EPHEMERIS_TYPE":"0","COUNTRY_CODE":"US","PERIAPSIS":"546.512"},{"REF_FRAME":"TEME","OBJECT_NAME":"STARLINK-2152","ECCENTRICITY":"0.00011820","ARG_OF_PERICENTER":"72.1846","FILE":"3223992","BSTAR":"0.00004360500000","MEAN_MOTION_DOT":"0.00000368","REV_AT_EPOCH":"4119","DECAY_DATE":null,"MEAN_MOTION_DDOT":"0.0000000000000","RA_OF_ASC_NODE":"37.7598","RCS_SIZE":"LARGE","ELEMENT_SET_NO":"999","TLE_LINE2":"2 47740  53.0555  37.7598 0001182  72.1846 287.9272 15.06399251 41199","TLE_LINE1":"1 47740U 21017U   21329.56251718  .00000368  00000-0  43605-4 0  9994","PERIAPSIS":"546.397","EPHEMERIS_TYPE":"0","COUNTRY_CODE":"US","APOAPSIS":"548.034","SEMIMAJOR_AXIS":"6925.351","SITE":"AFETR","MEAN_ANOMALY":"287.9272","MEAN_MOTION":"15.06399251","CENTER_NAME":"EARTH","OBJECT_TYPE":"PAYLOAD","OBJECT_ID":"2021-017U","CLASSIFICATION_TYPE":"U","INCLINATION":"53.0555","GP_ID":"190468344","PERIOD":"95.592","NORAD_CAT_ID":"47740","TIME_SYSTEM":"UTC","MEAN_ELEMENT_THEORY":"SGP4","LAUNCH_DATE":"2021-03-04","EPOCH":"2021-11-25T13:30:01.484352"},{"PERIAPSIS":"546.217","COUNTRY_CODE":"US","EPHEMERIS_TYPE":"0","SITE":"AFETR","SEMIMAJOR_AXIS":"6925.385","APOAPSIS":"548.282","CENTER_NAME":"EARTH","MEAN_MOTION":"15.06388174","MEAN_ANOMALY":"293.7064","OBJECT_ID":"2021-017V","OBJECT_TYPE":"PAYLOAD","PERIOD":"95.593","GP_ID":"190468352","INCLINATION":"53.0553","CLASSIFICATION_TYPE":"U","EPOCH":"2021-11-25T04:18:01.321344","LAUNCH_DATE":"2021-03-04","MEAN_ELEMENT_THEORY":"SGP4","TIME_SYSTEM":"UTC","NORAD_CAT_ID":"47741","OBJECT_NAME":"STARLINK-2154","REF_FRAME":"TEME","ECCENTRICITY":"0.00014910","ARG_OF_PERICENTER":"66.4081","BSTAR":"0.00001412000000","FILE":"3223992","REV_AT_EPOCH":"4114","MEAN_MOTION_DOT":"-0.00000071","DECAY_DATE":null,"TLE_LINE2":"2 47741  53.0553  39.4788 0001491  66.4081 293.7064 15.06388174 41149","RCS_SIZE":"LARGE","ELEMENT_SET_NO":"999","RA_OF_ASC_NODE":"39.4788","MEAN_MOTION_DDOT":"0.0000000000000","TLE_LINE1":"1 47741U 21017V   21329.17918196 -.00000071  00000-0  14120-4 0  9994"},{"ARG_OF_PERICENTER":"65.5616","BSTAR":"-0.00001067000000","FILE":"3224126","OBJECT_NAME":"STARLINK-2156","REF_FRAME":"TEME","ECCENTRICITY":"0.00013250","RCS_SIZE":"LARGE","ELEMENT_SET_NO":"999","RA_OF_ASC_NODE":"27.6390","TLE_LINE2":"2 47742  53.0572  27.6390 0001325  65.5616 294.5511 15.06393688 42029","MEAN_MOTION_DDOT":"0.0000000000000","TLE_LINE1":"1 47742U 21017W   21329.58923534 -.00000440  00000-0 -10670-4 0  9999","REV_AT_EPOCH":"4202","MEAN_MOTION_DOT":"-0.00000440","DECAY_DATE":null,"APOAPSIS":"548.151","SEMIMAJOR_AXIS":"6925.368","SITE":"AFETR","PERIAPSIS":"546.315","COUNTRY_CODE":"US","EPHEMERIS_TYPE":"0","INCLINATION":"53.0572","GP_ID":"190492692","PERIOD":"95.593","CLASSIFICATION_TYPE":"U","MEAN_ELEMENT_THEORY":"SGP4","LAUNCH_DATE":"2021-03-04","EPOCH":"2021-11-25T14:08:29.933376","NORAD_CAT_ID":"47742","TIME_SYSTEM":"UTC","CENTER_NAME":"EARTH","MEAN_ANOMALY":"294.5511","MEAN_MOTION":"15.06393688","OBJECT_ID":"2021-017W","OBJECT_TYPE":"PAYLOAD"},{"MEAN_ELEMENT_THEORY":"SGP4","LAUNCH_DATE":"2021-03-04","EPOCH":"2021-11-25T16:21:11.500704","NORAD_CAT_ID":"47743","TIME_SYSTEM":"UTC","INCLINATION":"53.0563","PERIOD":"95.592","GP_ID":"190493942","CLASSIFICATION_TYPE":"U","OBJECT_ID":"2021-017X","OBJECT_TYPE":"PAYLOAD","CENTER_NAME":"EARTH","MEAN_ANOMALY":"297.1650","MEAN_MOTION":"15.06402559","APOAPSIS":"547.900","SITE":"AFETR","SEMIMAJOR_AXIS":"6925.341","COUNTRY_CODE":"US","EPHEMERIS_TYPE":"0","PERIAPSIS":"546.511","TLE_LINE1":"1 47743U 21017X   21329.68138311  .00001259  00000-0  10339-3 0  9990","RCS_SIZE":"LARGE","ELEMENT_SET_NO":"999","RA_OF_ASC_NODE":"27.2044","TLE_LINE2":"2 47743  53.0563  27.2044 0001003  62.9441 297.1650 15.06402559 42012","MEAN_MOTION_DDOT":"0.0000000000000","DECAY_DATE":null,"MEAN_MOTION_DOT":"0.00001259","REV_AT_EPOCH":"4201","BSTAR":"0.00010339000000","FILE":"3224126","ARG_OF_PERICENTER":"62.9441","ECCENTRICITY":"0.00010030","OBJECT_NAME":"STARLINK-2157","REF_FRAME":"TEME"}];
